BEIDOU-2 IGSO-1 (C06)   
1 36828U 10036A   24035.99991442 -.00000103  00000+0  00000+0 0  9991
2 36828  54.2478 170.7744 0039068 193.3190 238.8109  1.00265378 49557
BEIDOU-2 G4 (C04)       
1 37210U 10057A   24036.52854502 -.00000098  00000+0  00000+0 0  9998
2 37210   1.5276  66.4373 0006556 199.7211 219.3757  1.00271512 48642
BEIDOU-2 IGSO-2 (C07)   
1 37256U 10068A   24036.59696199 -.00000155  00000+0  00000+0 0  9997
2 37256  49.1220 282.4348 0031129 213.4001 320.7505  1.00292863 48141
BEIDOU-2 IGSO-3 (C08)   
1 37384U 11013A   24035.61615796 -.00000147  00000+0  00000+0 0  9997
2 37384  61.1605  48.4007 0028185 184.5809 230.1873  1.00292554 47001
BEIDOU-2 IGSO-4 (C09)   
1 37763U 11038A   24035.94731083 -.00000010  00000+0  00000+0 0  9998
2 37763  54.5554 173.3584 0118329 226.7623 170.2539  1.00287002 45982
BEIDOU-2 IGSO-5 (C10)   
1 37948U 11073A   24035.60517662 -.00000113  00000+0  00000+0 0  9994
2 37948  49.2539 282.1263 0093522 220.7092 304.3051  1.00281745 44745
BEIDOU-2 G5 (C05)       
1 38091U 12008A   24036.64256257  .00000070  00000+0  00000+0 0  9999
2 38091   2.0794  70.4822 0008909 228.4094 126.4042  1.00271419 43712
BEIDOU-2 M3 (C11)       
1 38250U 12018A   24036.30471778 -.00000076  00000+0  00000+0 0  9994
2 38250  56.4235 333.7622 0023662 267.5371  92.2022  1.86231215 79878
BEIDOU-2 M4 (C12)       
1 38251U 12018B   24035.69854295 -.00000077  00000+0  00000+0 0  9996
2 38251  56.3325 333.0641 0014731 273.4167  86.4259  1.86232005 79862
BEIDOU-2 M6 (C14)       
1 38775U 12050B   24035.40819601 -.00000018  00000+0  00000+0 0  9999
2 38775  55.8061  91.6371 0013028 327.0755  32.9092  1.86231053 77229
BEIDOU-2 G6 (C02)       
1 38953U 12059A   24036.63948858 -.00000163  00000+0  00000+0 0  9990
2 38953   2.2197  81.3748 0010189 293.7330  74.4232  1.00271611 41262
BEIDOU-3S IGSO-1S (C31) 
1 40549U 15019A   24035.70782487 -.00000167  00000+0  00000+0 0  9998
2 40549  50.8199 305.7683 0035032 194.1662 344.9968  1.00278638 32418
BEIDOU-3S M2S (C58)     
1 40748U 15037A   24035.89992543 -.00000076  00000+0  00000+0 0  9994
2 40748  55.5681 331.5615 0010819 265.9132  93.9759  1.86233066 58040
BEIDOU-3S M1S (C57)     
1 40749U 15037B   24036.17019126 -.00000075  00000+0  00000+0 0  9993
2 40749  55.5711 331.5391 0006879 332.0314  27.9441  1.86232923 58052
BEIDOU-3S IGSO-2S (C56) 
1 40938U 15053A   24017.60469617 -.00000107  00000+0  00000+0 0  9998
2 40938  50.5932 269.1737 0046153 191.7705 325.9662  1.00252427 30519
BEIDOU-2 IGSO-6 (C13)   
1 41434U 16021A   24033.01166094 -.00000114  00000+0  00000+0 0  9990
2 41434  58.9717  46.7260 0049501 226.2454 315.0184  1.00254871 28790
BEIDOU-2 G7 (C03)       
1 41586U 16037A   24036.50696604 -.00000339  00000+0  00000+0 0  9996
2 41586   1.5874  67.6211 0010291 318.3246  42.0806  1.00263747 28138
BEIDOU-3 M1 (C19)       
1 43001U 17069A   24036.24827925 -.00000013  00000+0  00000+0 0  9998
2 43001  55.9573  91.6887 0011272 292.0912  67.8568  1.86231284 42530
BEIDOU-3 M2 (C20)       
1 43002U 17069B   24036.18525874 -.00000013  00000+0  00000+0 0  9990
2 43002  55.9569  91.7261 0008488 311.7136  48.2813  1.86231077 42520
BEIDOU-3 M7 (C27)       
1 43107U 18003A   24035.39828677 -.00000078  00000+0  00000+0 0  9995
2 43107  55.0259 332.2280 0004055  47.1774 312.8689  1.86232307 41269
BEIDOU-3 M8 (C28)       
1 43108U 18003B   24034.80068168 -.00000079  00000+0  00000+0 0  9993
2 43108  55.0191 332.2348 0004083 279.1716  80.7950  1.86230827 41261
BEIDOU-3 M4 (C22)       
1 43207U 18018A   24035.77936945 -.00000016  00000+0  00000+0 0  9994
2 43207  55.9159  91.7981 0005156 331.8027  28.2358  1.86231258 40668
BEIDOU-3 M3 (C21)       
1 43208U 18018B   24036.38291591 -.00000012  00000+0  00000+0 0  9990
2 43208  55.9157  91.7824 0008757 300.5595  59.4221  1.86231345 40679
BEIDOU-3 M9 (C29)       
1 43245U 18029A   24036.06802712 -.00000075  00000+0  00000+0 0  9990
2 43245  54.9141 329.9260 0001639 317.0176  42.9841  1.86232459 39829
BEIDOU-3 M10 (C30)      
1 43246U 18029B   24035.46091452 -.00000076  00000+0  00000+0 0  9996
2 43246  54.9112 329.9745 0004993 355.2011   4.8087  1.86232671 39795
BEIDOU-2 IGSO-7 (C16)   
1 43539U 18057A   24035.99964569 -.00000106  00000+0  00000+0 0  9992
2 43539  55.1376 170.5324 0069706 230.5981 204.2231  1.00293560 20485
BEIDOU-3 M5 (C23)       
1 43581U 18062A   24034.07116979  .00000114  00000+0  00000+0 0  9995
2 43581  54.1523 211.7367 0001610 348.0827  11.9152  1.86228725 37527
BEIDOU-3 M6 (C24)       
1 43582U 18062B   24034.47457385  .00000115  00000+0  00000+0 0  9990
2 43582  54.1519 211.7123 0007067  40.0479 320.0066  1.86229661 37536
BEIDOU-3 M12 (C26)      
1 43602U 18067A   24036.02027729  .00000112  00000+0  00000+0 0  9993
2 43602  54.2412 210.3287 0008079  31.4742 328.5743  1.86231618 37045
BEIDOU-3 M11 (C25)      
1 43603U 18067B   24035.61718937  .00000113  00000+0  00000+0 0  9997
2 43603  54.2383 210.3078 0004810  28.7986 331.2286  1.86231532 37069
BEIDOU-3 M13 (C32)      
1 43622U 18072A   24035.57713368 -.00000017  00000+0  00000+0 0  9996
2 43622  55.8863  91.3395 0007905 287.1863  72.7934  1.86231150 36570
BEIDOU-3 M14 (C33)      
1 43623U 18072B   24036.51649654 -.00000011  00000+0  00000+0 0  9992
2 43623  55.8888  91.3009 0005213 306.1078  53.9127  1.86231133 36587
BEIDOU-3 M16 (C35)      
1 43647U 18078A   24036.14285168 -.00000075  00000+0  00000+0 0  9999
2 43647  54.8099 330.0325 0008098   7.3541 352.6719  1.86232182 36085
BEIDOU-3 M15 (C34)      
1 43648U 18078B   24036.27197350 -.00000074  00000+0  00000+0 0  9998
2 43648  54.8055 330.0313 0004973   9.7243 350.2996  1.86232048 36103
BEIDOU-3 G1 (C59)       
1 43683U 18085A   24036.61574270 -.00000267  00000+0  00000+0 0  9997
2 43683   1.8701 115.4354 0002684 320.1483  61.3359  1.00267958 19417
BEIDOU-3 M17 (C36)      
1 43706U 18093A   24035.88352636  .00000113  00000+0  00000+0 0  9999
2 43706  54.2348 211.6034 0006231 293.3694  66.5675  1.86228292 35466
BEIDOU-3 M18 (C37)      
1 43707U 18093B   24034.13905396  .00000114  00000+0  00000+0 0  9995
2 43707  54.2359 211.6546 0005958 335.5676  24.4060  1.86229856 35425
BEIDOU-2 G8 (C01)       
1 44231U 19027A   24036.64748828 -.00000234  00000+0  00000+0 0  9993
2 44231   1.6192  72.8434 0003751 178.8731 261.2017  1.00273805 17434
BEIDOU-3 IGSO-2 (C39)   
1 44337U 19035A   24035.92999225 -.00000118  00000+0  00000+0 0  9999
2 44337  55.1698 166.4386 0031696 201.8072 220.4844  1.00282535 17015
BEIDOU-3 M24 (C46)      
1 44542U 19061A   24033.67260945  .00000113  00000+0  00000+0 0  9990
2 44542  54.4624 211.9380 0008461  12.7082 347.3144  1.86231334 29670
BEIDOU-3 M23 (C45)      
1 44543U 19061B   24036.27867872  .00000112  00000+0  00000+0 0  9991
2 44543  54.4607 211.8192 0005198  11.8978 207.4563  1.86231668 29727
BEIDOU-3 IGSO-3 (C40)   
1 44709U 19073A   24036.10272528 -.00000160  00000+0  00000+0 0  9992
2 44709  56.2731 290.1326 0034944 181.1115 178.9717  1.00290173 15802
BEIDOU-3 M22 (C44)      
1 44793U 19078A   24036.20302752 -.00000074  00000+0  00000+0 0  9998
2 44793  54.6579 329.9787 0007063  13.0580 346.9746  1.86231948 28576
BEIDOU-3 M21 (C43)      
1 44794U 19078B   24034.72233278 -.00000078  00000+0  00000+0 0  9994
2 44794  54.6327 330.0089 0004982   2.9554 357.0626  1.86232513 28558
BEIDOU-3 M19 (C41)      
1 44864U 19090A   24036.32757802 -.00000012  00000+0  00000+0 0  9996
2 44864  55.8208  91.4934 0019172 276.3464 273.2439  1.86231547 28162
BEIDOU-3 M20 (C42)      
1 44865U 19090B   24036.44595197 -.00000012  00000+0  00000+0 0  9997
2 44865  55.8227  91.5227 0016738 288.0237  70.6949  1.86231518 28144
BEIDOU-3 G2 (C60)       
1 45344U 20017A   24036.43660483 -.00000127  00000+0  00000+0 0  9998
2 45344   2.1673  23.9397 0002428 269.6575  78.6778  1.00272663 14601
BEIDOU-3 G3 (C61)       
1 45807U 20040A   24036.04563362 -.00000338  00000+0  00000+0 0  9997
2 45807   0.6038  19.3576 0009166 295.1879 307.0973  1.00275139 13413
BEIDOU-3 G4             
1 56564U 23066A   24036.57063185 -.00000094  00000+0  00000+0 0  9995
2 56564   2.4563 288.2330 0002787 213.6042 358.8789  1.00270947  2747
BEIDOU-3 M25            
1 58654U 23207A   24035.87906751 -.00000017  00000+0  00000+0 0  9996
2 58654  55.0017  91.6167 0004308 266.6885  93.3280  1.86232065   765
BEIDOU-3 M26            
1 58655U 23207B   24036.21466815 -.00000015  00000+0  00000+0 0  9996
2 58655  55.0040  91.5904 0005364 254.4248 105.5827  1.86231508   754
